<!DOCTYPE html PUBLIC "-//W3C//DTD XHTML 1.0 Strict//EN" "http://www.w3.org/TR/xhtml1/DTD/xhtml1-strict.dtd">
<html xmlns="http://www.w3.org/1999/xhtml">
<head>
<meta http-equiv="Content-Type" content="text/html; charset=iso-8859-1"/>
<title>404 - File Not Found.</title>
<style type="text/css">
<!--
body{margin:0;font-size:.7em;font-family:Verdana, Arial, Helvetica, sans-serif;background:#EEEEEE;}
fieldset{padding:0 15px 10px 15px;}
h1{font-size:2.4em;margin:0;color:#FFF;}
h2{font-size:1.7em;margin:0;color:#CC0000;}
h3{font-size:1.2em;margin:10px 0 0 0;color:#000000;}
#header{width:96%;margin:0 0 0 0;padding:6px 2% 6px 2%;font-family:"trebuchet MS", Verdana, sans-serif;color:#FFF;
background-color:#555555;}
#content{margin:0 0 0 2%;position:relative;}
.content-container{background:#FFF;width:96%;margin-top:8px;padding:10px;position:relative;}
-->
</style>
</head>
<body>
<div id="header"><h1>Server Error</h1></div>
<div id="content">
 <div class="content-container"><fieldset>
  <h2>404 - File Not Found.</h2>
  <h3>File not found for celestrak.org/NORAD/elements/active.txt.</h3>
  <h3>Please contact <a href="mailto:ts.kelso@celestrak.org">ts.kelso@celestrak.org</a> if you have other questions.</h3>
 </fieldset></div>
</div>
</body>
</html>
ASTROSAT                
1 40930U 15052A   24006.16340880  .00001943  00000+0  17423-3 0  9997
2 40930   5.9997  85.2473 0008613 282.4744  77.4420 14.78268977447249
DAMPE                   
1 41173U 15078A   24023.17629400  .00002261  00000+0  89467-4 0  9995
2 41173  97.4213  17.4608 0011554 302.6669  57.3454 15.26443251450705
PISAT                   
1 41784U 16059B   24022.84801316  .00001586  00000+0  29998-3 0  9995
2 41784  97.8487  51.4953 0032149 117.2203 243.2283 14.65353666391227
HXMT (HUIYAN)           
1 42758U 17034A   24023.13029095  .00009517  00000+0  50802-3 0  9990
2 42758  43.0162   3.7469 0002528 314.7950  45.2692 15.15281178364694
FLYING LAPTOP           
1 42831U 17042G   24022.90310339  .00002979  00000+0  28278-3 0  9996
2 42831  97.3804 212.4422 0012407 203.9198 156.1448 14.94176308355289
ZHANGZHENG-1 (CSES)     
1 43194U 18015C   24023.14884666  .00018275  00000+0  81978-3 0  9998
2 43194  97.5870 165.6296 0017078 314.4513  45.5324 15.21127809331497
SALSAT                  
1 46495U 20068K   24022.86904823  .00007574  00000+0  46132-3 0  9995
2 46495  97.7979 338.9602 0016573  92.0290 268.2837 15.10573228182206
IXPE                    
1 49954U 21121A   24006.41326890  .00004809  00000+0  34734-3 0  9997
2 49954   0.2276 159.2181 0010076  26.1569 174.6137 14.96025383113476
<!DOCTYPE html PUBLIC "-//W3C//DTD XHTML 1.0 Strict//EN" "http://www.w3.org/TR/xhtml1/DTD/xhtml1-strict.dtd">
<html xmlns="http://www.w3.org/1999/xhtml">
<head>
<meta http-equiv="Content-Type" content="text/html; charset=iso-8859-1"/>
<title>404 - File Not Found.</title>
<style type="text/css">
<!--
body{margin:0;font-size:.7em;font-family:Verdana, Arial, Helvetica, sans-serif;background:#EEEEEE;}
fieldset{padding:0 15px 10px 15px;}
h1{font-size:2.4em;margin:0;color:#FFF;}
h2{font-size:1.7em;margin:0;color:#CC0000;}
h3{font-size:1.2em;margin:10px 0 0 0;color:#000000;}
#header{width:96%;margin:0 0 0 0;padding:6px 2% 6px 2%;font-family:"trebuchet MS", Verdana, sans-serif;color:#FFF;
background-color:#555555;}
#content{margin:0 0 0 2%;position:relative;}
.content-container{background:#FFF;width:96%;margin-top:8px;padding:10px;position:relative;}
-->
</style>
</head>
<body>
<div id="header"><h1>Server Error</h1></div>
<div id="content">
 <div class="content-container"><fieldset>
  <h2>404 - File Not Found.</h2>
  <h3>File not found for celestrak.org/NORAD/elements/ses.txt.</h3>
  <h3>Please contact <a href="mailto:ts.kelso@celestrak.org">ts.kelso@celestrak.org</a> if you have other questions.</h3>
 </fieldset></div>
</div>
</body>
</html>
ISS (ZARYA)             
1 25544U 98067A   24023.33753979  .00025415  00000+0  45497-3 0  9995
2 25544  51.6425 318.0500 0005081 119.0583  25.3892 15.49796280435937
ISS DEB                 
1 47853U 98067RZ  24022.85971689  .00144830  19490-4  34924-3 0  9992
2 47853  51.6229 243.5815 0002045 187.3244 172.7734 15.96131123163500
CSS (TIANHE)            
1 48274U 21035A   24022.17986409  .00039656  00000+0  43212-3 0  9993
2 48274  41.4691 261.2644 0007803 216.7162 143.3143 15.62603633156084
ISS (NAUKA)             
1 49044U 21066A   24022.34444689  .00022124  00000+0  39802-3 0  9993
2 49044  51.6401 322.9746 0004834 117.7925 242.3554 15.49742528435772
FREGAT DEB              
1 49271U 11037PF  24022.47137933  .00003278  00000+0  80862-2 0  9997
2 49271  51.6483  45.9287 0979948 175.4761 185.5783 12.11399242117396
CSS (WENTIAN)           
1 53239U 22085A   24022.17986409  .00039656  00000+0  43212-3 0  9996
2 53239  41.4691 261.2644 0007803 216.7162 143.3143 15.62603633156081
CSS (MENGTIAN)          
1 54216U 22143A   24022.17986409  .00039656  00000+0  43212-3 0  9997
2 54216  41.4691 261.2644 0007803 216.7162 143.3143 15.62603633156087
ISS DEB                 
1 57212U 98067VP  24023.05139959  .00070418  00000+0  59987-3 0  9999
2 57212  51.6347 306.6753 0005018 140.2455 219.8910 15.68890919 32999
1998-067VR              
1 57313U 98067VR  24022.99005346  .01137363  78941-3  12356-2 0  9990
2 57313  51.6230 294.8383 0006934 180.8306 179.2697 16.09323385 31457
MOONLIGHTER             
1 57316U 98067VU  24023.01286341  .00531126  11807-3  17694-2 0  9995
2 57316  51.6278 298.8388 0008372 179.8495 180.2514 15.89617867 31397
PROGRESS-MS 24          
1 57691U 23125A   24022.34444689  .00022124  00000+0  39802-3 0  9998
2 57691  51.6401 322.9746 0004834 117.7925 242.3554 15.49742528435779
CREW DRAGON 7           
1 57697U 23128A   24022.34444689  .00022124  00000+0  39802-3 0  9997
2 57697  51.6401 322.9746 0004834 117.7925 242.3554 15.49742528435775
SOYUZ-MS 24             
1 57862U 23143A   24022.34444689  .00022124  00000+0  39802-3 0  9998
2 57862  51.6401 322.9746 0004834 117.7925 242.3554 15.49742528435779
SHENZHOU-17 (SZ-17)     
1 58146U 23164A   24022.17986409  .00039656  00000+0  43212-3 0  9997
2 58146  41.4691 261.2644 0007803 216.7162 143.3143 15.62603633156083
ISS DEB                 
1 58174U 98067WA  24023.04378811  .00141249  00000+0  13517-2 0  9997
2 58174  51.6373 314.8957 0006500 117.6196 242.5460 15.65699368 13938
ISS DEB                 
1 58229U 98067WC  24022.20698624  .00057855  00000+0  76076-3 0  9991
2 58229  51.6392 321.3131 0004286 104.8776 255.2691 15.57905618 12562
PROGRESS-MS 25          
1 58460U 23184A   24022.34444689  .00022124  00000+0  39802-3 0  9998
2 58460  51.6401 322.9746 0004834 117.7925 242.3554 15.49742528435774
BEAK                    
1 58612U 98067WD  24023.11063866  .00060533  00000+0  88406-3 0  9999
2 58612  51.6404 318.3480 0006200 119.0761 241.0852 15.55043967  5635
CLARK SAT-1 (AMBITIOUS) 
1 58613U 98067WE  24023.08543168  .00122788  00000+0  16009-2 0  9994
2 58613  51.6395 318.1792 0008698 140.6658 219.4967 15.57764155  5601
TIANZHOU-7              
1 58811U 24013A   24022.17986409  .00039656  00000+0  43212-3 0  9990
2 58811  41.4691 261.2644 0007803 216.7162 143.3143 15.62603633156082
CZ-7 R/B                
1 58812U 24013B   24022.93872623  .01445779  76066-5  59653-3 0  9992
2 58812  41.4685 254.2896 0072697 216.7512 273.9466 16.15584874   865
2024-013C               
1 58813U 24013C   24018.11402078 -.00002294  72670-5  00000+0 0  9997
2 58813  41.8298 285.9373 0234014 181.6233 328.2070 15.73710950    93
2024-013D               
1 58814U 24013D   24018.11444661 -.00002240  70950-5  00000+0 0  9992
2 58814  41.6413 286.0086 0240306 187.1577 323.2676 15.72861586    84
2024-014A               
1 58815U 24014A   24022.34444689  .00022124  00000+0  39802-3 0  9995
2 58815  51.6401 322.9746 0004834 117.7925 242.3554 15.49742528435778
TDRS 3                  
1 19548U 88091B   24022.24165789 -.00000299  00000+0  00000+0 0  9994
2 19548  13.2755 346.9599 0040847 335.9253 196.3527  1.00274617116593
HST                     
1 20580U 90037B   24022.97129220  .00006258  00000+0  31046-3 0  9993
2 20580  28.4672 243.1365 0002223 244.1327 115.9035 15.15655275655071
TDRS 5                  
1 21639U 91054B   24022.65183581  .00000083  00000+0  00000+0 0  9996
2 21639  14.1812   0.1960 0025697 353.8799 194.7805  1.00270819118922
TDRS 6                  
1 22314U 93003B   24023.14555164 -.00000298  00000+0  00000+0 0  9997
2 22314  14.1578   3.4839 0006743 159.7041 325.2343  1.00267213113597
TDRS 7                  
1 23613U 95035B   24022.91276588 -.00000203  00000+0  00000+0 0  9997
2 23613  13.7424 354.2631 0023485  59.6605 121.1492  1.00277618104462
ISS (ZARYA)             
1 25544U 98067A   24023.33753979  .00025415  00000+0  45497-3 0  9995
2 25544  51.6425 318.0500 0005081 119.0583  25.3892 15.49796280435937
LANDSAT 7               
1 25682U 99020A   24023.09213112  .00000720  00000+0  15775-3 0  9999
2 25682  97.9054  56.6737 0001674  89.3818 328.4937 14.60428907317871
TERRA                   
1 25994U 99068A   24023.14517045  .00000808  00000+0  17953-3 0  9992
2 25994  98.0690  90.8198 0003115  97.3620 321.8603 14.59551172281863
TDRS 8                  
1 26388U 00034A   24022.71931441  .00000090  00000+0  00000+0 0  9991
2 26388  11.3049  38.3811 0005098 245.1368 289.2404  1.00274442 86391
TIMED                   
1 26998U 01055B   24022.91138723  .00002296  00000+0  23803-3 0  9996
2 26998  74.0703 193.7176 0002232 271.0938  88.9988 14.90651412200162
TDRS 9                  
1 27389U 02011A   24022.87688340 -.00000135  00000+0  00000+0 0  9995
2 27389  10.2863  55.1965 0002264 143.6746 249.0445  0.98983679 81610
AQUA                    
1 27424U 02022A   24023.16659791  .00001742  00000+0  38273-3 0  9999
2 27424  98.3140 332.2021 0000994 113.2029 306.0550 14.58787638155422
